HISPASAT 30W-6          
1 43228U 18023A   20228.41120542 -.00000216  00000-0  00000-0 0  9996
2 43228   0.0346  54.6494 0004282  63.8582 323.7910  1.00272895  9125
SUPERBIRD 8             
1 43271U 18033A   20228.55223090 -.00000094  00000-0  00000-0 0  9996
2 43271   0.0149 121.4679 0001105  23.6536 180.0923  1.00270204  8675
HYLAS 4                 
1 43272U 18033B   20228.48228345 -.00000234  00000-0  00000-0 0  9993
2 43272   0.0639 122.0957 0004267  47.4920 294.8793  1.00271328  8711
IRNSS-1I                
1 43286U 18035A   20227.76091028  .00000077  00000-0  00000+0 0  9999
2 43286  29.2635 108.4628 0018483 178.8635   5.3370  1.00269686  8681
USA 283                 
1 43339U 18036A   20227.43896510 -.00000316  00000-0  00000+0 0  9999
2 43339   0.0154  25.9413 0000643 220.9301   8.5639  1.00271243  3923
COSMOS 2526             
1 43432U 18037A   20228.51447348 -.00000346  00000-0  00000-0 0  9999
2 43432   0.0273 108.7764 0000733  26.7376 142.1073  1.00270377  8594
APSTAR 6C               
1 43450U 18041A   20228.58748993 -.00000319  00000-0  00000-0 0  9991
2 43450   0.0281 183.1708 0002153 273.3328 213.4577  1.00271405  8463
BANGABANDHUSAT-1        
1 43463U 18044A   20228.51272878 -.00000364  00000-0  00000-0 0  9995
2 43463   0.0219 122.5357 0001785  40.2968 105.2233  1.00269123  8333
SES-12                  
1 43488U 18049A   20228.18660351 -.00000270  00000-0  00000+0 0  9992
2 43488   0.0178  69.4272 0001622 170.0129 246.7916  1.00271643  8047
FENGYUN 2H              
1 43491U 18050A   20228.60639350 -.00000128  00000-0  00000-0 0  9993
2 43491   0.5224 271.3980 0003096 238.5063 111.8415  1.00275373  8132
BEIDOU IGSO-7           
1 43539U 18057A   20228.52682572 -.00000120  00000-0  00000-0 0  9990
2 43539  55.0490 181.7128 0029687 214.9916 227.1679  1.00249427  7786
TELSTAR 19V             
1 43562U 18059A   20228.28010991 -.00000280  00000-0  00000+0 0  9997
2 43562   0.0105 150.0965 0003366  20.8522 191.0301  1.00272891  7799
TELKOM 4 (MERAH PUTIH)  
1 43587U 18064A   20228.59670323 -.00000346  00000-0  00000-0 0  9999
2 43587   0.0129 106.1467 0001078  59.5462 121.5634  1.00272634  7490
TELSTAR 18V (APSTAR 5C) 
1 43611U 18069A   20228.33536757 -.00000295  00000-0  00000-0 0  9999
2 43611   0.0275 103.9290 0001945  51.9448  67.0486  1.00268891  7255
AZERSPACE 2 (IS-38)     
1 43632U 18074A   20228.49798591  .00000135  00000-0  00000-0 0  9993
2 43632   0.0159 109.2739 0001271  48.1742  31.2878  1.00271326  7124
HORIZONS 3E             
1 43633U 18074B   20228.54702086 -.00000032  00000-0  00000-0 0  9991
2 43633   0.0051  15.7796 0000514 264.1858  50.3555  1.00270971  6956
AEHF-4 (USA 288)        
1 43651U 18079A   20228.58325536  .00000133  00000-0  00000-0 0  9992
2 43651   3.7587 311.2310 0005464 190.9785 242.1099  1.00270149  6928
BEIDOU-3 G1             
1 43683U 18085A   20228.61993892 -.00000280  00000-0  00000-0 0  9998
2 43683   1.6411 253.0348 0003128 341.2467  93.4012  1.00270945  6693
GSAT-29                 
1 43698U 18089A   20228.49999234  .00000084  00000-0  00000-0 0  9991
2 43698   0.0696 275.2539 0001229 182.3068 101.8360  1.00271533  6410
ES'HAIL 2               
1 43700U 18090A   20228.33521826  .00000143  00000-0  00000+0 0  9993
2 43700   0.0167 114.7948 0001718  64.5589 291.3205  1.00269904  6546
GEO-KOMPSAT-2A          
1 43823U 18100A   20228.51456073 -.00000345  00000-0  00000-0 0  9998
2 43823   0.0190 101.9412 0001788  17.5788 158.3569  1.00269551  6237
GSAT-11                 
1 43824U 18100B   20228.50374348 -.00000078  00000-0  00000-0 0  9995
2 43824   0.1032 275.0818 0007706 204.6291  99.9990  1.00272071  6140
GSAT-7A                 
1 43864U 18105A   20228.50147535  .00000026  00000-0  00000-0 0  9992
2 43864   0.0659 281.2837 0001585 210.3755  75.9810  1.00271345  6098
COSMOS 2533             
1 43867U 18107A   20228.50295837 -.00000040  00000-0  00000-0 0  9993
2 43867   0.0161 120.4238 0000379 356.5632  98.4319  1.00274580  6048
TJS-3                   
1 43874U 18110A   20228.69837529 -.00000197  00000-0  00000+0 0  9997
2 43874   0.0310 171.1312 0001403  25.7932 177.5067  0.99916304  6116
TJS-3 AKM               
1 43917U 18110C   20228.72932753  .00000056  00000-0  00000+0 0  9997
2 43917   0.0628 150.2256 0002706   0.5105 135.4347  1.00267639  5960
CHINASAT 2D (ZX 2D)     
1 43920U 19001A   20228.44311455 -.00000337  00000-0  00000+0 0  9993
2 43920   0.0574 272.3832 0001696 145.7397 195.7036  1.00274447  5972
HELLAS-SAT 4 & SGS-1    
1 44034U 19007A   20228.39007921  .00000152  00000-0  00000+0 0  9994
2 44034   0.0651 122.0843 0006167  30.5040 351.0708  1.00269538  5981
GSAT-31                 
1 44035U 19007B   20228.49850933  .00000124  00000-0  00000-0 0  9995
2 44035   0.0599 282.8902 0001975 286.5811 342.2237  1.00271200  5602
NUSANTARA SATU          
1 44048U 19009A   20228.51919611 -.00000236  00000-0  00000-0 0  9998
2 44048   0.0152  91.4016 0001991  64.6127 141.2701  1.00270934  5385
CHINASAT 6C (ZX 6C)     
1 44067U 19012A   20228.44311455 -.00000338  00000-0  00000+0 0  9999
2 44067   0.0690 259.7482 0002602 343.2968  10.7886  1.00270159  5358
WGS 10 (USA 291)        
1 44071U 19014A   20228.39563361  .00000138  00000-0  00000+0 0  9992
2 44071   0.0836  99.9468 0000142 162.5768 228.1672  1.00269687  5239
TIANLIAN 2-01           
1 44076U 19017A   20228.57675992 -.00000137  00000-0  00000-0 0  9995
2 44076   1.8707 285.7367 0034292 215.8165 110.5285  1.00274471  5230
ARABSAT-6A              
1 44186U 19021A   20228.49501990  .00000152  00000-0  00000-0 0  9995
2 44186   0.0561 328.9541 0004879 250.7822 313.3138  1.00271543  4822
BEIDOU-3 IGSO-1         
1 44204U 19023A   20228.34713035 -.00000182  00000-0  10000-3 0  9995
2 44204  55.5791  60.2639 0017511 178.4363 324.2092  1.00276493  4986
BEIDOU-2 G8             
1 44231U 19027A   20228.51824744 -.00000247  00000-0  00000-0 0  9996
2 44231   0.8551 298.9192 0007221 268.1916  88.3214  1.00276142  4700
YAMAL 601               
1 44307U 19031A   20228.49877104  .00000119  00000-0  00000-0 0  9997
2 44307   0.0255 112.8744 0001553  47.2089  32.8325  1.00269739  4557
AT&T T-16               
1 44333U 19034A   20228.27486258 -.00000116  00000-0  00000+0 0  9998
2 44333   0.0367 273.4107 0000460  76.1626 332.6575  1.00271868  4263
EUTELSAT 7C             
1 44334U 19034B   20228.40674475  .00000047  00000-0  00000-0 0  9997
2 44334   0.0106 136.7900 0003022 357.1662 343.6878  1.00270836  4741
BEIDOU-3 IGSO-2         
1 44337U 19035A   20228.52682572 -.00000125  00000-0  00000-0 0  9999
2 44337  55.0747 177.7663 0014221 190.1398 254.1353  1.00272552  4325
COSMOS 2539             
1 44457U 19048A   20228.40119056  .00000080  00000-0  00000+0 0  9993
2 44457   0.0201 124.9518 0000724 141.5861 214.1362  1.00271366  3859
EDRS-C                  
1 44475U 19049A   20228.01369002  .00000154  00000-0  00000-0 0  9992
2 44475   0.0725 279.3641 0000474 176.8030 263.8388  1.00269696  3822
INTELSAT 39 (IS-39)     
1 44476U 19049B   20228.50130088  .00000032  00000-0  00000-0 0  9992
2 44476   0.0078 106.5837 0001171 215.0335 245.1506  1.00271675  3792
AMOS-17                 
1 44479U 19050A   20228.40119056  .00000108  00000-0  00000-0 0  9992
2 44479   0.0608 274.8460 0001936 239.8165 331.0206  1.00270122  3821
AEHF-5 (USA 292)        
1 44481U 19051A   20228.21276036  .00000091  00000-0  00000+0 0  9997
2 44481   5.8518 307.8933 0002776 199.5100 307.7785  1.00268880  3889
EUTELSAT 5 WEST B       
1 44624U 19067A   20228.34439509 -.00000043  00000-0  00000+0 0  9991
2 44624   0.0469  29.3824 0005799  97.4699 316.3273  1.00272130  3074
TJS-4                   
1 44637U 19070A   20228.60222153 -.00000171  00000-0  00000-0 0  9996
2 44637   0.0293 139.1457 0002436 228.7073 256.8877  1.00273668  3193
BEIDOU-3 IGSO-3         
1 44709U 19073A   20228.35680507 -.00000155  00000-0  10000-3 0  9998
2 44709  58.3090 303.3024 0025414 189.3537  66.9402  1.00266580  3073
TIBA-1                  
1 44800U 19080A   20228.49606672  .00000155  00000-0  00000-0 0  9999
2 44800   0.0544 358.4228 0001725 150.0658  29.9397  1.00269721  2697
INMARSAT GX5            
1 44801U 19080B   20228.40119056  .00000074  00000-0  00000-0 0  9996
2 44801   0.0510  90.7215 0002543  65.9805 323.0202  1.00273983  2733
JCSAT-18 (KACIFIC 1)    
1 44868U 19091A   20228.61525797 -.00000202  00000-0  00000-0 0  9991
2 44868   0.0149 101.6685 0000946 112.2326 122.0419  1.00271371  2642
ELEKTRO-L 3             
1 44903U 19095A   20228.60503778 -.00000099  00000-0  00000-0 0  9993
2 44903   0.0420 297.6593 0001309 269.3598  51.3352  1.00272515  2356
SHIJIAN-20 (SJ-20)      
1 44910U 19097A   20228.76370348 -.00000354  00000-0  00000+0 0  9998
2 44910   0.3497  94.9902 0008359 132.9958 137.0127  1.00273089  2326
TJS-5                   
1 44978U 20002A   20228.57289508  .00000042  00000-0  00000-0 0  9990
2 44978   0.5136 281.2570 0002274 268.8793 159.0586  1.00272590  2330
GSAT-30                 
1 45026U 20005A   20228.60221890 -.00000167  00000-0  00000-0 0  9991
2 45026   0.0754 283.3602 0004697 165.3779 175.5228  1.00272949  2144
EUTELSAT KONNECT        
1 45027U 20005B   20228.40674475  .00000048  00000-0  00000+0 0  9997
2 45027   0.0260  98.1228 0000295 187.5869 192.1867  1.00268984  2967
JCSAT-17                
1 45245U 20013A   20227.67954441 -.00000306  00000-0  00000+0 0  9998
2 45245   6.8376 344.0147 0004039 166.7860 193.3582  1.00271870  1867
GEO-KOMPSAT-2B          
1 45246U 20013B   20228.44276559 -.00000345  00000-0  00000-0 0  9996
2 45246   0.0525 272.6863 0001185 318.9406  20.3234  1.00272388  1887
BEIDOU-3 G2             
1 45344U 20017A   20228.57675992 -.00000138  00000-0  00000-0 0  9997
2 45344   2.8682 329.1739 0002498 171.9052 111.0270  1.00272212  1897
